0 FENGYUN 1C DEB
1 31492U 99025BWF 13282.55038881  .00002223  00000-0  10448-2 0  6432
2 31492 098.9817 314.2656 0154175 334.3829 024.9700 14.15009668330654
0 FENGYUN 1C DEB
1 31492U 99025BWF 13283.05595442  .00003305  00000-0  15437-2 0  6445
2 31492 098.9808 314.7769 0153791 332.7959 080.5084 14.15015358330727
0 FENGYUN 1C DEB
1 31492U 99025BWF 13284.32919131  .00003299  00000-0  15405-2 0  6459
2 31492 098.9811 316.0588 0153761 329.1508 086.4998 14.15022735330908
0 FENGYUN 1C DEB
1 31492U 99025BWF 13286.30905328  .00002800  00000-0  13107-2 0  6467
2 31492 098.9809 318.0527 0153797 323.4655 092.1916 14.15033804331183
0 FENGYUN 1C DEB
1 31492U 99025BWF 13288.07677860  .00004403  00000-0  20476-2 0  6479
2 31492 098.9805 319.8333 0153863 318.3868 097.2995 14.15046850331432
0 FENGYUN 1C DEB
1 31492U 99025BWF 13289.58065036  .00004125  00000-0  19196-2 0  6481
2 31492 098.9799 321.3476 0153813 314.1024 198.3264 14.15056932331640
0 FENGYUN 1C DEB
1 31492U 99025BWF 13291.04112179  .00003757  00000-0  17498-2 0  6490
2 31492 098.9793 322.8180 0153815 309.9222 078.3356 14.15066994331857
0 FENGYUN 1C DEB
1 31492U 99025BWF 13292.31987476  .00003756  00000-0  17496-2 0  6500
2 31492 098.9788 324.1049 0153704 306.3047 112.6270 14.15075319332032
0 FENGYUN 1C DEB
1 31492U 99025BWF 13295.07084449  .00004097  00000-0  19051-2 0  6513
2 31492 098.9784 326.8738 0153887 298.4120 087.0043 14.15093171332429
